NORAD_CAT_ID,OBJECT_NAME,OBJECT_TYPE,EPOCH,MEAN_MOTION,ECCENTRICITY,INCLINATION,RA_OF_ASC_NODE,ARG_OF_PERICENTER,MEAN_ANOMALY,BSTAR,MEAN_MOTION_DOT,MEAN_MOTION_DDOT,TLE_LINE0,TLE_LINE1,TLE_LINE2,SEMIMAJOR_AXIS,PERIOD,APOGEE,PERIGEE,DECAYED
53934.0,STARLINK-4775,PAYLOAD,2023-01-03 14:00:01,15.5670388,0.0001179,53.2165,115.4136,70.8532,244.0865,-0.017419,-0.01142851,0.0,0 STARLINK-4775,1 53934U 22119BA  23003.58334491 -.01142851  00000-0 -17419-1 0  9991,2 53934  53.2165 115.4136 0001179  70.8532 244.0865 15.56703880  1308,6775.340999999999,92.503,398.005,396.407,0.0
53934.0,STARLINK-4775,PAYLOAD,2023-01-03 22:00:00,15.55893148,0.0001304,53.2162,113.8048,46.0625,337.4753,-0.018012,-0.01146133,0.0,0 STARLINK-4775,1 53934U 22119BA  23003.91667824 -.01146133  00000-0 -18012-1 0  9994,2 53934  53.2162 113.8048 0001304  46.0625 337.4753 15.55893148 16324,6777.695,92.551,400.443,398.676,0.0
53934.0,STARLINK-4775,PAYLOAD,2023-01-04 14:00:01,15.54257589,0.000145,53.2167,110.5939,59.0995,98.7723,-0.018923,-0.01134544,0.0,0 STARLINK-4775,1 53934U 22119BA  23004.58335648 -.01134544  00000-0 -18923-1 0  9998,2 53934  53.2167 110.5939 0001450  59.0995  98.7723 15.54257589  1306,6782.449000000001,92.649,405.297,403.33,0.0
53934.0,STARLINK-4775,PAYLOAD,2023-01-04 22:00:00,15.53462568,0.0001607,53.2162,108.991,47.5801,175.8842,-0.019965,-0.01159861,0.0,0 STARLINK-4775,1 53934U 22119BA  23004.91667824 -.01159861  00000-0 -19965-1 0  9995,2 53934  53.2162 108.9910 0001607  47.5801 175.8842 15.53462568 16470,6784.762,92.696,407.718,405.537,0.0
53934.0,STARLINK-4775,PAYLOAD,2023-01-05 14:00:01,15.51816077,0.0001351,53.217,105.7921,52.0468,299.8248,-0.020675,-0.01133933,0.0,0 STARLINK-4775,1 53934U 22119BA  23005.58334491 -.01133933  00000-0 -20675-1 0  9992,2 53934  53.2170 105.7921 0001351  52.0468 299.8248 15.51816077  1301,6789.561,92.795,412.343,410.508,0.0
53934.0,STARLINK-4775,PAYLOAD,2023-01-05 20:00:01,15.51199185,0.0001375999999999,53.2171,104.5937,54.5224,254.4923,-0.0208919999999999,-0.01121897,0.0,0 STARLINK-4775,1 53934U 22119BA  23005.83334491 -.01121897  00000-0 -20892-1 0  9997,2 53934  53.2171 104.5937 0001376  54.5224 254.4923 15.51199185  1301,6791.361,92.831,414.16,412.291,0.0
53934.0,STARLINK-4775,PAYLOAD,2023-01-06 06:00:00,15.50124737,0.0001744,53.2166,102.599,40.219,76.1501,-0.0062363,-0.00342291,0.0,0 STARLINK-4775,1 53934U 22119BA  23006.25001157 -.00342291  00000-0 -62363-2 0  9996,2 53934  53.2166 102.5990 0001744  40.2190  76.1501 15.50124737 16683,6794.499,92.896,417.549,415.179,0.0
53934.0,STARLINK-4775,PAYLOAD,2023-01-06 22:00:00,15.49895894,0.0001344,53.2131,99.4167,26.9402,211.2323,-0.00023969,-0.00014036,0.0,0 STARLINK-4775,1 53934U 22119BA  23006.91667824 -.00014036  00000-0 -23969-3 0  9991,2 53934  53.2131  99.4167 0001344  26.9402 211.2323 15.49895894 16780,6795.167,92.909,417.946,416.119,0.0
53934.0,STARLINK-4775,PAYLOAD,2023-01-07 06:00:00,15.49888566,0.0001247,53.2135,97.8226,33.3386,265.7462,0.00073105,0.00041264,0.0,0 STARLINK-4775,1 53934U 22119BA  23007.25001157  .00041264  00000-0  73105-3 0  9998,2 53934  53.2135  97.8226 0001247  33.3386 265.7462 15.49888566  1305,6795.189,92.91,417.901,416.206,0.0
53934.0,STARLINK-4775,PAYLOAD,2023-01-07 14:00:01,15.49904084,0.0001559,53.2139,96.2314,30.1009,329.9236,0.00057129,0.00032127,0.0,0 STARLINK-4775,1 53934U 22119BA  23007.58334491  .00032127  00000-0  57129-3 0  9990,2 53934  53.2139  96.2314 0001559  30.1009 329.9236 15.49904084 16899,6795.143,92.909,418.068,415.949,0.0
53934.0,STARLINK-4775,PAYLOAD,2023-01-08 00:00:00,15.50057971,0.0001764999999999,53.2158,94.2368,36.1055,130.0947,-0.0076764,-0.0041633999999999,0.0,0 STARLINK-4775,1 53934U 22119BA  23008.00001157 -.00416340  00000-0 -76764-2 0  9998,2 53934  53.2158  94.2368 0001765  36.1055 130.0947 15.50057971  1309,6794.694,92.9,417.758,415.359,0.0
53934.0,STARLINK-4775,PAYLOAD,2023-01-08 06:00:00,15.50006328,0.0002042,53.2166,93.0403,34.2708,87.6519,-0.019628,-0.01019871,0.0,0 STARLINK-4775,1 53934U 22119BA  23008.25001157 -.01019871  00000-0 -19628-1 0  9999,2 53934  53.2166  93.0403 0002042  34.2708  87.6519 15.50006328 16991,6794.845,92.903,418.097,415.322,0.0
53934.0,STARLINK-4775,PAYLOAD,2023-01-08 14:00:01,15.49326641,0.0001639,53.2172,91.4498,46.3838,136.131,-0.024048,-0.01217803,0.0,0 STARLINK-4775,1 53934U 22119BA  23008.58334491 -.01217803  00000-0 -24048-1 0  9992,2 53934  53.2172  91.4498 0001639  46.3838 136.1310 15.49326641  1302,6796.831999999999,92.944,419.811,417.583,0.0
53934.0,STARLINK-4775,PAYLOAD,2023-01-08 22:00:00,15.48467053,0.0001692,53.2171,89.8576,39.2753,202.9442,-0.02342,-0.01156183,0.0,0 STARLINK-4775,1 53934U 22119BA  23008.91667824 -.01156183  00000-0 -23420-1 0  9994,2 53934  53.2171  89.8576 0001692  39.2753 202.9442 15.48467053  1305,6799.347,92.995,422.362,420.061,0.0
53934.0,STARLINK-4775,PAYLOAD,2023-01-09 06:00:00,15.47671583,0.000164,53.2169,88.2685,29.7596,271.153,-0.02459,-0.01178369,0.0,0 STARLINK-4775,1 53934U 22119BA  23009.25001157 -.01178369  00000-0 -24590-1 0  9992,2 53934  53.2169  88.2685 0001640  29.7596 271.1530 15.47671583 17147,6801.676,93.043,424.657,422.426,0.0
53934.0,STARLINK-4775,PAYLOAD,2023-01-09 14:00:01,15.46845267,0.0001443,53.2172,86.6838,46.6607,311.983,-0.024953,-0.01163096,0.0,0 STARLINK-4775,1 53934U 22119BA  23009.58334491 -.01163096  00000-0 -24953-1 0  9992,2 53934  53.2172  86.6838 0001443  46.6607 311.9830 15.46845267  1303,6804.099,93.093,426.945,424.982,0.0
53934.0,STARLINK-4775,PAYLOAD,2023-01-10 00:00:00,15.45813543,0.0001695,53.2175,84.7011,42.2056,117.2266,-0.0253,-0.01139978,0.0,0 STARLINK-4775,1 53934U 22119BA  23010.00001157 -.01139978  00000-0 -25300-1 0  9990,2 53934  53.2175  84.7011 0001695  42.2056 117.2266 15.45813543  1308,6807.126,93.155,430.144,427.837,0.0
53934.0,STARLINK-4775,PAYLOAD,2023-01-10 14:00:01,15.44397481,0.00017,53.2169,81.9352,43.1391,122.8158,-0.026872,-0.01152111,0.0,0 STARLINK-4775,1 53934U 22119BA  23010.58334491 -.01152111  00000-0 -26872-1 0  9992,2 53934  53.2169  81.9352 0001700  43.1391 122.8158 15.44397481 17358,6811.286,93.24,434.309,431.99300000000005,0.0
53934.0,STARLINK-4775,PAYLOAD,2023-01-10 22:00:00,15.43452791,0.0001214,53.2126,80.3568,110.4576,109.4197,-0.023556,-0.00977916,0.0,0 STARLINK-4775,1 53934U 22119BA  23010.91667824 -.00977916  00000-0 -23556-1 0  9991,2 53934  53.2126  80.3568 0001214 110.4576 109.4197 15.43452791  1303,6814.065,93.297,436.757,435.103,0.0
53934.0,STARLINK-4775,PAYLOAD,2023-01-11 14:00:01,15.41950075,0.0001641999999999,53.2177,77.2038,32.9685,291.497,-0.028932,-0.01142421,0.0,0 STARLINK-4775,1 53934U 22119BA  23011.58334491 -.01142421  00000-0 -28932-1 0  9995,2 53934  53.2177  77.2038 0001642  32.9685 291.4970 15.41950075 17517,6818.491,93.388,441.476,439.237,0.0
53934.0,STARLINK-4775,PAYLOAD,2023-01-11 22:00:00,15.41130463,0.0001689,53.2173,75.6294,32.5143,342.8349,-0.02951,-0.0113438,0.0,0 STARLINK-4775,1 53934U 22119BA  23011.91667824 -.01134380  00000-0 -29510-1 0  9999,2 53934  53.2173  75.6294 0001689  32.5143 342.8349 15.41130463  1307,6820.9090000000015,93.438,443.926,441.622,0.0
53934.0,STARLINK-4775,PAYLOAD,2023-01-12 06:00:02,15.40321856,0.0001758,53.2174,74.0578,34.8125,30.5018,-0.030544,-0.01142159,0.0,0 STARLINK-4775,1 53934U 22119BA  23012.25002315 -.01142159  00000-0 -30544-1 0  9997,2 53934  53.2174  74.0578 0001758  34.8125  30.5018 15.40321856 17610,6823.295999999999,93.487,446.36,443.961,0.0
53934.0,STARLINK-4775,PAYLOAD,2023-01-12 22:00:00,15.38669571,0.0001317,53.2133,70.9227,83.0497,79.1179,-0.031192,-0.0110734,0.0,0 STARLINK-4775,1 53934U 22119BA  23012.91667824 -.01107340  00000-0 -31192-1 0  9995,2 53934  53.2133  70.9227 0001317  83.0497  79.1179 15.38669571  1302,6828.18,93.587,450.944,449.145,0.0
53934.0,STARLINK-4775,PAYLOAD,2023-01-13 06:00:00,15.37901921,0.0001473,53.2145,69.3567,90.4591,118.661,-0.034165,-0.01176091,0.0,0 STARLINK-4775,1 53934U 22119BA  23013.25001157 -.01176091  00000-0 -34165-1 0  9996,2 53934  53.2145  69.3567 0001473  90.4591 118.6610 15.37901921 17767,6830.451999999998,93.634,453.323,451.31,0.0
53934.0,STARLINK-4775,PAYLOAD,2023-01-13 14:00:01,15.37047877,0.0001330999999999,53.2139,67.7952,78.5633,176.5531,-0.032706,-0.01101579,0.0,0 STARLINK-4775,1 53934U 22119BA  23013.58334491 -.01101579  00000-0 -32706-1 0  9990,2 53934  53.2139  67.7952 0001331  78.5633 176.5531 15.37047877  1306,6832.981,93.686,455.756,453.937,0.0
53934.0,STARLINK-4775,PAYLOAD,2023-01-13 22:00:00,15.36223872,0.0001230999999999,53.2134,66.2317,88.6412,211.4988,-0.033471,-0.01097889,0.0,0 STARLINK-4775,1 53934U 22119BA  23013.91667824 -.01097889  00000-0 -33471-1 0  9994,2 53934  53.2134  66.2317 0001231  88.6412 211.4988 15.36223872  1301,6835.425,93.736,458.131,456.448,0.0
53934.0,STARLINK-4775,PAYLOAD,2023-01-14 14:00:01,15.34612627,0.0001245,53.213,63.1161,72.2062,315.0153,-0.035736,-0.01111634,0.0,0 STARLINK-4775,1 53934U 22119BA  23014.58334491 -.01111634  00000-0 -35736-1 0  9990,2 53934  53.2130  63.1161 0001245  72.2062 315.0153 15.34612627 17978,6840.2080000000005,93.835,462.925,461.222,0.0
53934.0,STARLINK-4775,PAYLOAD,2023-01-15 06:00:00,15.33012411,0.0001335,53.213,60.0051,82.9544,27.4447,-0.039719,-0.01168556,0.0,0 STARLINK-4775,1 53934U 22119BA  23015.25001157 -.01168556  00000-0 -39719-1 0  9995,2 53934  53.2130  60.0051 0001335  82.9544  27.4447 15.33012411 18071,6844.968000000001,93.933,467.746,465.919,0.0
53934.0,STARLINK-4775,PAYLOAD,2023-01-15 14:00:01,15.32172694,0.0001486999999999,53.2127,58.4544,73.934,76.5931,-0.0387389999999999,-0.01114842,0.0,0 STARLINK-4775,1 53934U 22119BA  23015.58334491 -.01114842  00000-0 -38739-1 0  9991,2 53934  53.2127  58.4544 0001487  73.9340  76.5931 15.32172694  1307,6847.468000000001,93.984,470.351,468.315,0.0
